STARLINK-34092          
1 63904U 25095Q   25211.82635796  .00028635  00000+0  10457-2 0  9992
2 63904  43.0026 349.4502 0001031 284.0069  76.0668 15.27591220 13843
STARLINK-34114          
1 63905U 25095R   25211.70329772  .00021382  00000+0  78394-3 0  9991
2 63905  43.0026 350.2472 0001128 257.4607 102.6118 15.27594546 13827
STARLINK-33770          
1 63906U 25095S   25211.72113846  .00039480  00000+0  14349-2 0  9994
2 63906  43.0010 349.5091 0002215 254.0945 105.9662 15.27616075 13838
STARLINK-34106          
1 63907U 25095T   25211.65189032  .00025909  00000+0  94681-3 0  9996
2 63907  43.0000 349.8483 0000410 119.5547 240.5346 15.27612318 13824
STARLINK-34083          
1 63908U 25095U   25211.69944447  .00021484  00000+0  78794-3 0  9991
2 63908  43.0008 350.2183 0001201 270.9958  89.0756 15.27581370 13827
STARLINK-34066          
1 63909U 25095V   25211.68530881  .00006994  00000+0  26341-3 0  9994
2 63909  42.9987 350.1069 0001421 282.2599  77.8093 15.27582528 13820
STARLINK-34071          
1 63910U 25095W   25211.10326218  .00023892  00000+0  87467-3 0  9992
2 63910  43.0021 353.4814 0000814  11.2226 348.8643 15.27590599 13738
STARLINK-34038          
1 63911U 25095X   25211.67759801  .00025517  00000+0  93330-3 0  9995
2 63911  43.0017 350.0464 0001087 264.5663  95.5065 15.27589506 13829
STARLINK-34031          
1 63912U 25095Y   25211.68145698  .00028732  00000+0  10492-2 0  9999
2 63912  43.0017 350.0786 0001387 276.3666  83.7027 15.27590882 13820
STARLINK-34070          
1 63913U 25095Z   25211.41219501  .00008927  00000+0  33343-3 0  9991
2 63913  43.0004 351.4948 0001163 278.2466  81.8254 15.27589077 13783
STARLINK-34068          
1 63914U 25095AA  25211.72884755  .00025915  00000+0  94729-3 0  9996
2 63914  43.0002 349.5647 0001316 258.2664 101.8040 15.27602548 13835
STARLINK-34076          
1 63915U 25095AB  25211.66989633  .00014002  00000+0  51731-3 0  9992
2 63915  42.9981 349.9831 0000964 346.0727  14.0098 15.27583544 13824
STARLINK-33910          
1 63916U 25095AC  25211.45188504  .00033240  00000+0  12110-2 0  9990
2 63916  43.0009 350.9277 0001268 248.3230 111.7487 15.27607638 13799
STARLINK-34075          
1 63917U 25095AD  25211.85576115  .00025891  00000+0  94676-3 0  9995
2 63917  43.0025 348.7986 0003015 268.3268  91.7238 15.27589216 13854
STARLINK-34012          
1 63926U 25098A   25211.47396920  .00006121  00000+0  52031-3 0  9994
2 63926  70.0002 114.8658 0002611 270.3270  89.7590 14.98329903 13304
STARLINK-33956          
1 63927U 25098B   25211.82860875  .00002470  00000+0  21470-3 0  9995
2 63927  70.0009 113.6932 0002673 264.5310  95.5544 14.98337867 13270
STARLINK-33997          
1 63928U 25098C   25211.88704782  .00000954  00000+0  87725-4 0  9997
2 63928  69.9997 113.8925 0003044 273.4349  86.6461 14.98331620 13171
