[{"OBJECT_NAME":"STARLINK-34092","OBJECT_ID":"2025-095Q","EPOCH":"2025-07-30T19:49:57.327744","MEAN_MOTION":15.2759122,"ECCENTRICITY":0.0001031,"INCLINATION":43.0026,"RA_OF_ASC_NODE":349.4502,"ARG_OF_PERICENTER":284.0069,"MEAN_ANOMALY":76.0668,"EPHEMERIS_TYPE":0,"CLASSIFICATION_TYPE":"U","NORAD_CAT_ID":63904,"ELEMENT_SET_NO":999,"REV_AT_EPOCH":1384,"BSTAR":0.0010457,"MEAN_MOTION_DOT":0.00028635,"MEAN_MOTION_DDOT":0},{"OBJECT_NAME":"STARLINK-34114","OBJECT_ID":"2025-095R","EPOCH":"2025-07-30T16:52:44.923008","MEAN_MOTION":15.27594546,"ECCENTRICITY":0.0001128,"INCLINATION":43.0026,"RA_OF_ASC_NODE":350.2472,"ARG_OF_PERICENTER":257.4607,"MEAN_ANOMALY":102.6118,"EPHEMERIS_TYPE":0,"CLASSIFICATION_TYPE":"U","NORAD_CAT_ID":63905,"ELEMENT_SET_NO":999,"REV_AT_EPOCH":1382,"BSTAR":0.00078394,"MEAN_MOTION_DOT":0.00021382,"MEAN_MOTION_DDOT":0},{"OBJECT_NAME":"STARLINK-33770","OBJECT_ID":"2025-095S","EPOCH":"2025-07-30T17:18:26.362944","MEAN_MOTION":15.27616075,"ECCENTRICITY":0.0002215,"INCLINATION":43.001,"RA_OF_ASC_NODE":349.5091,"ARG_OF_PERICENTER":254.0945,"MEAN_ANOMALY":105.9662,"EPHEMERIS_TYPE":0,"CLASSIFICATION_TYPE":"U","NORAD_CAT_ID":63906,"ELEMENT_SET_NO":999,"REV_AT_EPOCH":1383,"BSTAR":0.0014349,"MEAN_MOTION_DOT":0.0003948,"MEAN_MOTION_DDOT":0},{"OBJECT_NAME":"STARLINK-34106","OBJECT_ID":"2025-095T","EPOCH":"2025-07-30T15:38:43.323648","MEAN_MOTION":15.27612318,"ECCENTRICITY":4.1e-5,"INCLINATION":43,"RA_OF_ASC_NODE":349.8483,"ARG_OF_PERICENTER":119.5547,"MEAN_ANOMALY":240.5346,"EPHEMERIS_TYPE":0,"CLASSIFICATION_TYPE":"U","NORAD_CAT_ID":63907,"ELEMENT_SET_NO":999,"REV_AT_EPOCH":1382,"BSTAR":0.00094681,"MEAN_MOTION_DOT":0.00025909,"MEAN_MOTION_DDOT":0},{"OBJECT_NAME":"STARLINK-34083","OBJECT_ID":"2025-095U","EPOCH":"2025-07-30T16:47:12.002208","MEAN_MOTION":15.2758137,"ECCENTRICITY":0.0001201,"INCLINATION":43.0008,"RA_OF_ASC_NODE":350.2183,"ARG_OF_PERICENTER":270.9958,"MEAN_ANOMALY":89.0756,"EPHEMERIS_TYPE":0,"CLASSIFICATION_TYPE":"U","NORAD_CAT_ID":63908,"ELEMENT_SET_NO":999,"REV_AT_EPOCH":1382,"BSTAR":0.00078794,"MEAN_MOTION_DOT":0.00021484,"MEAN_MOTION_DDOT":0},{"OBJECT_NAME":"STARLINK-34066","OBJECT_ID":"2025-095V","EPOCH":"2025-07-30T16:26:50.681184","MEAN_MOTION":15.27582528,"ECCENTRICITY":0.0001421,"INCLINATION":42.9987,"RA_OF_ASC_NODE":350.1069,"ARG_OF_PERICENTER":282.2599,"MEAN_ANOMALY":77.8093,"EPHEMERIS_TYPE":0,"CLASSIFICATION_TYPE":"U","NORAD_CAT_ID":63909,"ELEMENT_SET_NO":999,"REV_AT_EPOCH":1382,"BSTAR":0.00026341,"MEAN_MOTION_DOT":6.994e-5,"MEAN_MOTION_DDOT":0},{"OBJECT_NAME":"STARLINK-34071","OBJECT_ID":"2025-095W","EPOCH":"2025-07-30T02:28:41.852352","MEAN_MOTION":15.27590599,"ECCENTRICITY":8.14e-5,"INCLINATION":43.0021,"RA_OF_ASC_NODE":353.4814,"ARG_OF_PERICENTER":11.2226,"MEAN_ANOMALY":348.8643,"EPHEMERIS_TYPE":0,"CLASSIFICATION_TYPE":"U","NORAD_CAT_ID":63910,"ELEMENT_SET_NO":999,"REV_AT_EPOCH":1373,"BSTAR":0.00087467,"MEAN_MOTION_DOT":0.00023892,"MEAN_MOTION_DDOT":0},{"OBJECT_NAME":"STARLINK-34038","OBJECT_ID":"2025-095X","EPOCH":"2025-07-30T16:15:44.468064","MEAN_MOTION":15.27589506,"ECCENTRICITY":0.0001087,"INCLINATION":43.0017,"RA_OF_ASC_NODE":350.0464,"ARG_OF_PERICENTER":264.5663,"MEAN_ANOMALY":95.5065,"EPHEMERIS_TYPE":0,"CLASSIFICATION_TYPE":"U","NORAD_CAT_ID":63911,"ELEMENT_SET_NO":999,"REV_AT_EPOCH":1382,"BSTAR":0.0009333,"MEAN_MOTION_DOT":0.00025517,"MEAN_MOTION_DDOT":0},{"OBJECT_NAME":"STARLINK-34031","OBJECT_ID":"2025-095Y","EPOCH":"2025-07-30T16:21:17.883072","MEAN_MOTION":15.27590882,"ECCENTRICITY":0.0001387,"INCLINATION":43.0017,"RA_OF_ASC_NODE":350.0786,"ARG_OF_PERICENTER":276.3666,"MEAN_ANOMALY":83.7027,"EPHEMERIS_TYPE":0,"CLASSIFICATION_TYPE":"U","NORAD_CAT_ID":63912,"ELEMENT_SET_NO":999,"REV_AT_EPOCH":1382,"BSTAR":0.0010492,"MEAN_MOTION_DOT":0.00028732,"MEAN_MOTION_DDOT":0},{"OBJECT_NAME":"STARLINK-34070","OBJECT_ID":"2025-095Z","EPOCH":"2025-07-30T09:53:33.648864","MEAN_MOTION":15.27589077,"ECCENTRICITY":0.0001163,"INCLINATION":43.0004,"RA_OF_ASC_NODE":351.4948,"ARG_OF_PERICENTER":278.2466,"MEAN_ANOMALY":81.8254,"EPHEMERIS_TYPE":0,"CLASSIFICATION_TYPE":"U","NORAD_CAT_ID":63913,"ELEMENT_SET_NO":999,"REV_AT_EPOCH":1378,"BSTAR":0.00033343,"MEAN_MOTION_DOT":8.927e-5,"MEAN_MOTION_DDOT":0},{"OBJECT_NAME":"STARLINK-34068","OBJECT_ID":"2025-095AA","EPOCH":"2025-07-30T17:29:32.428320","MEAN_MOTION":15.27602548,"ECCENTRICITY":0.0001316,"INCLINATION":43.0002,"RA_OF_ASC_NODE":349.5647,"ARG_OF_PERICENTER":258.2664,"MEAN_ANOMALY":101.804,"EPHEMERIS_TYPE":0,"CLASSIFICATION_TYPE":"U","NORAD_CAT_ID":63914,"ELEMENT_SET_NO":999,"REV_AT_EPOCH":1383,"BSTAR":0.00094729,"MEAN_MOTION_DOT":0.00025915,"MEAN_MOTION_DDOT":0},{"OBJECT_NAME":"STARLINK-34076","OBJECT_ID":"2025-095AB","EPOCH":"2025-07-30T16:04:39.042912","MEAN_MOTION":15.27583544,"ECCENTRICITY":9.64e-5,"INCLINATION":42.9981,"RA_OF_ASC_NODE":349.9831,"ARG_OF_PERICENTER":346.0727,"MEAN_ANOMALY":14.0098,"EPHEMERIS_TYPE":0,"CLASSIFICATION_TYPE":"U","NORAD_CAT_ID":63915,"ELEMENT_SET_NO":999,"REV_AT_EPOCH":1382,"BSTAR":0.00051731,"MEAN_MOTION_DOT":0.00014002,"MEAN_MOTION_DDOT":0},{"OBJECT_NAME":"STARLINK-33910","OBJECT_ID":"2025-095AC","EPOCH":"2025-07-30T10:50:42.867456","MEAN_MOTION":15.27607638,"ECCENTRICITY":0.0001268,"INCLINATION":43.0009,"RA_OF_ASC_NODE":350.9277,"ARG_OF_PERICENTER":248.323,"MEAN_ANOMALY":111.7487,"EPHEMERIS_TYPE":0,"CLASSIFICATION_TYPE":"U","NORAD_CAT_ID":63916,"ELEMENT_SET_NO":999,"REV_AT_EPOCH":1379,"BSTAR":0.001211,"MEAN_MOTION_DOT":0.0003324,"MEAN_MOTION_DDOT":0},{"OBJECT_NAME":"STARLINK-34075","OBJECT_ID":"2025-095AD","EPOCH":"2025-07-30T20:32:17.763360","MEAN_MOTION":15.27589216,"ECCENTRICITY":0.0003015,"INCLINATION":43.0025,"RA_OF_ASC_NODE":348.7986,"ARG_OF_PERICENTER":268.3268,"MEAN_ANOMALY":91.7238,"EPHEMERIS_TYPE":0,"CLASSIFICATION_TYPE":"U","NORAD_CAT_ID":63917,"ELEMENT_SET_NO":999,"REV_AT_EPOCH":1385,"BSTAR":0.00094676,"MEAN_MOTION_DOT":0.00025891,"MEAN_MOTION_DDOT":0},{"OBJECT_NAME":"STARLINK-34012","OBJECT_ID":"2025-098A","EPOCH":"2025-07-30T11:22:30.938880","MEAN_MOTION":14.98329903,"ECCENTRICITY":0.0002611,"INCLINATION":70.0002,"RA_OF_ASC_NODE":114.8658,"ARG_OF_PERICENTER":270.327,"MEAN_ANOMALY":89.759,"EPHEMERIS_TYPE":0,"CLASSIFICATION_TYPE":"U","NORAD_CAT_ID":63926,"ELEMENT_SET_NO":999,"REV_AT_EPOCH":1330,"BSTAR":0.00052031,"MEAN_MOTION_DOT":6.121e-5,"MEAN_MOTION_DDOT":0},{"OBJECT_NAME":"STARLINK-33956","OBJECT_ID":"2025-098B","EPOCH":"2025-07-30T19:53:11.796000","MEAN_MOTION":14.98337867,"ECCENTRICITY":0.0002673,"INCLINATION":70.0009,"RA_OF_ASC_NODE":113.6932,"ARG_OF_PERICENTER":264.531,"MEAN_ANOMALY":95.5544,"EPHEMERIS_TYPE":0,"CLASSIFICATION_TYPE":"U","NORAD_CAT_ID":63927,"ELEMENT_SET_NO":999,"REV_AT_EPOCH":1327,"BSTAR":0.0002147,"MEAN_MOTION_DOT":2.47e-5,"MEAN_MOTION_DDOT":0},{"OBJECT_NAME":"STARLINK-33997","OBJECT_ID":"2025-098C","EPOCH":"2025-07-30T21:17:20.931648","MEAN_MOTION":14.9833162,"ECCENTRICITY":0.0003044,"INCLINATION":69.9997,"RA_OF_ASC_NODE":113.8925,"ARG_OF_PERICENTER":273.4349,"MEAN_ANOMALY":86.6461,"EPHEMERIS_TYPE":0,"CLASSIFICATION_TYPE":"U","NORAD_CAT_ID":63928,"ELEMENT_SET_NO":999,"REV_AT_EPOCH":1317,"BSTAR":8.7725e-5,"MEAN_MOTION_DOT":9.54e-6,"MEAN_MOTION_DDOT":0}]
